[{"OBJECT_NAME":"LEMUR-2-AMANDA-SVANTE","OBJECT_ID":"2021-034B","EPOCH":"2026-03-09T18:37:58.823328","MEAN_MOTION":15.28469003,"ECCENTRICITY":0.00027027,"INCLINATION":97.5829,"RA_OF_ASC_NODE":144.8625,"ARG_OF_PERICENTER":205.4721,"MEAN_ANOMALY":154.6385,"EPHEMERIS_TYPE":0,"CLASSIFICATION_TYPE":"U","NORAD_CAT_ID":48269,"ELEMENT_SET_NO":999,"REV_AT_EPOCH":26584,"BSTAR":0.0011134246,"MEAN_MOTION_DOT":0.00030872,"MEAN_MOTION_DDOT":0},{"OBJECT_NAME":"STARLINK-35963","OBJECT_ID":"2025-268AE","EPOCH":"2026-03-09T03:41:06.953280","MEAN_MOTION":15.27578695,"ECCENTRICITY":0.00014151,"INCLINATION":43.0027,"RA_OF_ASC_NODE":350.4473,"ARG_OF_PERICENTER":252.4104,"MEAN_ANOMALY":107.6593,"EPHEMERIS_TYPE":0,"CLASSIFICATION_TYPE":"U","NORAD_CAT_ID":66585,"ELEMENT_SET_NO":999,"REV_AT_EPOCH":1787,"BSTAR":0.0013187789,"MEAN_MOTION_DOT":0.00036205,"MEAN_MOTION_DDOT":0}]
